{
  "type": "FeatureCollection",
  "features": [
    {
      "type": "Feature",
      "properties": {
        "norad_id": 32113,
        "name": "FENGYUN 1C DEB",
        "group": "fengyun-1c-debris",
        "lat": -41.746598306310815,
        "lon": 22.784918841572594,
        "alt_km": 861.367033286645,
        "timestamp": "2025-12-05T16:54:14.932583+00:00",
        "meta_object_name": "FENGYUN 1C DEB",
        "meta_object_id": "1999-025CRF",
        "meta_epoch": "2025-12-03T20:20:09.726720",
        "meta_mean_motion": 13.94518389,
        "meta_eccentricity": 0.0237724,
        "meta_inclination": 99.0277,
        "meta_ra_of_asc_node": 12.8111,
        "meta_arg_of_pericenter": 251.0269,
        "meta_mean_anomaly": 106.4996,
        "meta_ephemeris_type": 0,
        "meta_classification_type": "U",
        "meta_norad_cat_id": 32113,
        "meta_element_set_no": 999,
        "meta_rev_at_epoch": 62762,
        "meta_bstar": 0.0013246,
        "meta_mean_motion_dot": 2.191e-05,
        "meta_mean_motion_ddot": 0,
        "tle_line1": "1 32113U 99025CRF 25337.84733480  .00002191  00000+0  13246-2 0  9992",
        "tle_line2": "2 32113  99.0277  12.8111 0237724 251.0269 106.4996 13.94518389627629"
      },
      "geometry": {
        "type": "Point",
        "coordinates": [
          22.784918841572594,
          -41.746598306310815
        ]
      }
    },
    {
      "type": "Feature",
      "properties": {
        "norad_id": 32114,
        "name": "FENGYUN 1C DEB",
        "group": "fengyun-1c-debris",
        "lat": 18.938036336370136,
        "lon": -81.40908703557176,
        "alt_km": 669.0125748407772,
        "timestamp": "2025-12-05T16:54:14.932592+00:00",
        "meta_object_name": "FENGYUN 1C DEB",
        "meta_object_id": "1999-025CRG",
        "meta_epoch": "2025-11-30T01:10:09.442560",
        "meta_mean_motion": 14.76162507,
        "meta_eccentricity": 0.00446183,
        "meta_inclination": 99.9271,
        "meta_ra_of_asc_node": 88.2086,
        "meta_arg_of_pericenter": 23.884,
        "meta_mean_anomaly": 336.442,
        "meta_ephemeris_type": 0,
        "meta_classification_type": "U",
        "meta_norad_cat_id": 32114,
        "meta_element_set_no": 999,
        "meta_rev_at_epoch": 65542,
        "meta_bstar": 0.0027760533,
        "meta_mean_motion_dot": 0.00019481,
        "meta_mean_motion_ddot": 0,
        "tle_line1": "1 32114U 99025CRG 25334.04872040  .00019481  00000+0  27761-2 0  9995",
        "tle_line2": "2 32114  99.9271  88.2086 0044618  23.8840 336.4420 14.76162507655423"
      },
      "geometry": {
        "type": "Point",
        "coordinates": [
          -81.40908703557176,
          18.938036336370136
        ]
      }
    },
    {
      "type": "Feature",
      "properties": {
        "norad_id": 32117,
        "name": "FENGYUN 1C DEB",
        "group": "fengyun-1c-debris",
        "lat": -55.01099067757737,
        "lon": -167.31960384731408,
        "alt_km": 830.4005883207483,
        "timestamp": "2025-12-05T16:54:14.932601+00:00",
        "meta_object_name": "FENGYUN 1C DEB",
        "meta_object_id": "1999-025CRK",
        "meta_epoch": "2025-12-05T02:18:37.643328",
        "meta_mean_motion": 14.23890979,
        "meta_eccentricity": 0.00277384,
        "meta_inclination": 98.6127,
        "meta_ra_of_asc_node": 24.5906,
        "meta_arg_of_pericenter": 113.3832,
        "meta_mean_anomaly": 247.0269,
        "meta_ephemeris_type": 0,
        "meta_classification_type": "U",
        "meta_norad_cat_id": 32117,
        "meta_element_set_no": 999,
        "meta_rev_at_epoch": 94688,
        "meta_bstar": 0.0020696482,
        "meta_mean_motion_dot": 4.72e-05,
        "meta_mean_motion_ddot": 0,
        "tle_line1": "1 32117U 99025CRK 25339.09626902  .00004720  00000+0  20696-2 0  9992",
        "tle_line2": "2 32117  98.6127  24.5906 0027738 113.3832 247.0269 14.23890979946880"
      },
      "geometry": {
        "type": "Point",
        "coordinates": [
          -167.31960384731408,
          -55.01099067757737
        ]
      }
    },
    {
      "type": "Feature",
      "properties": {
        "norad_id": 32119,
        "name": "FENGYUN 1C DEB",
        "group": "fengyun-1c-debris",
        "lat": 70.03526291950891,
        "lon": 172.92380607452418,
        "alt_km": 815.5411195106681,
        "timestamp": "2025-12-05T16:54:14.932610+00:00",
        "meta_object_name": "FENGYUN 1C DEB",
        "meta_object_id": "1999-025CRM",
        "meta_epoch": "2025-12-02T08:06:34.750944",
        "meta_mean_motion": 14.02777574,
        "meta_eccentricity": 0.00850504,
        "meta_inclination": 99.8869,
        "meta_ra_of_asc_node": 197.9631,
        "meta_arg_of_pericenter": 80.269,
        "meta_mean_anomaly": 280.8067,
        "meta_ephemeris_type": 0,
        "meta_classification_type": "U",
        "meta_norad_cat_id": 32119,
        "meta_element_set_no": 999,
        "meta_rev_at_epoch": 93582,
        "meta_bstar": 0.0011651066,
        "meta_mean_motion_dot": 1.81e-05,
        "meta_mean_motion_ddot": 0,
        "tle_line1": "1 32119U 99025CRM 25336.33790221  .00001810  00000+0  11651-2 0  9992",
        "tle_line2": "2 32119  99.8869 197.9631 0085050  80.2690 280.8067 14.02777574935828"
      },
      "geometry": {
        "type": "Point",
        "coordinates": [
          172.92380607452418,
          70.03526291950891
        ]
      }
    },
    {
      "type": "Feature",
      "properties": {
        "norad_id": 32123,
        "name": "FENGYUN 1C DEB",
        "group": "fengyun-1c-debris",
        "lat": -56.86418736333134,
        "lon": 160.89728272760001,
        "alt_km": 585.3908097618541,
        "timestamp": "2025-12-05T16:54:14.932619+00:00",
        "meta_object_name": "FENGYUN 1C DEB",
        "meta_object_id": "1999-025CRR",
        "meta_epoch": "2025-12-05T06:29:23.958816",
        "meta_mean_motion": 14.61424508,
        "meta_eccentricity": 0.0159797,
        "meta_inclination": 98.9402,
        "meta_ra_of_asc_node": 146.474,
        "meta_arg_of_pericenter": 316.2213,
        "meta_mean_anomaly": 224.6882,
        "meta_ephemeris_type": 0,
        "meta_classification_type": "U",
        "meta_norad_cat_id": 32123,
        "meta_element_set_no": 999,
        "meta_rev_at_epoch": 71265,
        "meta_bstar": 0.0003973459,
        "meta_mean_motion_dot": 2.292e-05,
        "meta_mean_motion_ddot": 0,
        "tle_line1": "1 32123U 99025CRR 25339.27041619  .00002292  00000+0  39735-3 0  9992",
        "tle_line2": "2 32123  98.9402 146.4740 0159797 316.2213 224.6882 14.61424508712655"
      },
      "geometry": {
        "type": "Point",
        "coordinates": [
          160.89728272760001,
          -56.86418736333134
        ]
      }
    },
    {
      "type": "Feature",
      "properties": {
        "norad_id": 32125,
        "name": "FENGYUN 1C DEB",
        "group": "fengyun-1c-debris",
        "lat": -56.310087680955135,
        "lon": 125.42429391092546,
        "alt_km": 706.1065137833739,
        "timestamp": "2025-12-05T16:54:14.932628+00:00",
        "meta_object_name": "FENGYUN 1C DEB",
        "meta_object_id": "1999-025CRT",
        "meta_epoch": "2025-11-30T16:29:46.563072",
        "meta_mean_motion": 14.69027096,
        "meta_eccentricity": 0.01775541,
        "meta_inclination": 99.061,
        "meta_ra_of_asc_node": 313.7121,
        "meta_arg_of_pericenter": 0.429,
        "meta_mean_anomaly": 359.7033,
        "meta_ephemeris_type": 0,
        "meta_classification_type": "U",
        "meta_norad_cat_id": 32125,
        "meta_element_set_no": 999,
        "meta_rev_at_epoch": 70346,
        "meta_bstar": 0.0033542642,
        "meta_mean_motion_dot": 0.00025065,
        "meta_mean_motion_ddot": 0,
        "tle_line1": "1 32125U 99025CRT 25334.68734448  .00025065  00000+0  33543-2 0  9996",
        "tle_line2": "2 32125  99.0610 313.7121 0177554   0.4290 359.7033 14.69027096703466"
      },
      "geometry": {
        "type": "Point",
        "coordinates": [
          125.42429391092546,
          -56.310087680955135
        ]
      }
    },
    {
      "type": "Feature",
      "properties": {
        "norad_id": 32126,
        "name": "FENGYUN 1C DEB",
        "group": "fengyun-1c-debris",
        "lat": -11.692176267484918,
        "lon": -141.8132773190414,
        "alt_km": 990.9995849172965,
        "timestamp": "2025-12-05T16:54:14.932637+00:00",
        "meta_object_name": "FENGYUN 1C DEB",
        "meta_object_id": "1999-025CRU",
        "meta_epoch": "2025-12-04T10:52:29.350272",
        "meta_mean_motion": 13.5677459,
        "meta_eccentricity": 0.0281594,
        "meta_inclination": 99.1099,
        "meta_ra_of_asc_node": 215.1244,
        "meta_arg_of_pericenter": 276.7788,
        "meta_mean_anomaly": 80.1388,
        "meta_ephemeris_type": 0,
        "meta_classification_type": "U",
        "meta_norad_cat_id": 32126,
        "meta_element_set_no": 999,
        "meta_rev_at_epoch": 61602,
        "meta_bstar": 0.0020639,
        "meta_mean_motion_dot": 1.847e-05,
        "meta_mean_motion_ddot": 0,
        "tle_line1": "1 32126U 99025CRU 25338.45311748  .00001847  00000+0  20639-2 0  9994",
        "tle_line2": "2 32126  99.1099 215.1244 0281594 276.7788  80.1388 13.56774590616026"
      },
      "geometry": {
        "type": "Point",
        "coordinates": [
          -141.8132773190414,
          -11.692176267484918
        ]
      }
    }
  ]
}